[{"OBJECT_NAME":"STARLINK-2378","OBJECT_ID":"2021-021BJ","EPOCH":"2026-03-20T19:30:10.368000","MEAN_MOTION":15.30208057,"ECCENTRICITY":0.00011135,"INCLINATION":53.1584,"RA_OF_ASC_NODE":203.6898,"ARG_OF_PERICENTER":74.4145,"MEAN_ANOMALY":285.6979,"EPHEMERIS_TYPE":0,"CLASSIFICATION_TYPE":"U","NORAD_CAT_ID":47916,"ELEMENT_SET_NO":999,"REV_AT_EPOCH":27811,"BSTAR":6.3816649e-5,"MEAN_MOTION_DOT":1.532e-5,"MEAN_MOTION_DDOT":0},{"OBJECT_NAME":"STARLINK-2405","OBJECT_ID":"2021-021BM","EPOCH":"2026-03-21T02:40:53.284512","MEAN_MOTION":15.29390692,"ECCENTRICITY":9.254e-5,"INCLINATION":53.1559,"RA_OF_ASC_NODE":227.9296,"ARG_OF_PERICENTER":133.143,"MEAN_ANOMALY":226.9647,"EPHEMERIS_TYPE":0,"CLASSIFICATION_TYPE":"U","NORAD_CAT_ID":47919,"ELEMENT_SET_NO":999,"REV_AT_EPOCH":27779,"BSTAR":0.00013501466,"MEAN_MOTION_DOT":3.546e-5,"MEAN_MOTION_DDOT":0},{"OBJECT_NAME":"STARLINK-1647","OBJECT_ID":"2021-024B","EPOCH":"2026-03-21T05:46:22.598976","MEAN_MOTION":15.30208334,"ECCENTRICITY":0.00011229,"INCLINATION":53.1584,"RA_OF_ASC_NODE":278.7505,"ARG_OF_PERICENTER":82.0569,"MEAN_ANOMALY":278.056,"EPHEMERIS_TYPE":0,"CLASSIFICATION_TYPE":"U","NORAD_CAT_ID":47978,"ELEMENT_SET_NO":999,"REV_AT_EPOCH":27639,"BSTAR":0.00023956083,"MEAN_MOTION_DOT":6.744e-5,"MEAN_MOTION_DDOT":0},{"OBJECT_NAME":"STARLINK-2303","OBJECT_ID":"2021-024E","EPOCH":"2026-03-20T13:56:45.412224","MEAN_MOTION":15.30209328,"ECCENTRICITY":0.0001342,"INCLINATION":53.1594,"RA_OF_ASC_NODE":281.8623,"ARG_OF_PERICENTER":97.5852,"MEAN_ANOMALY":262.5301,"EPHEMERIS_TYPE":0,"CLASSIFICATION_TYPE":"U","NORAD_CAT_ID":47981,"ELEMENT_SET_NO":999,"REV_AT_EPOCH":27629,"BSTAR":0.0002827,"MEAN_MOTION_DOT":8.025e-5,"MEAN_MOTION_DDOT":0},{"OBJECT_NAME":"STARLINK-2273","OBJECT_ID":"2021-024S","EPOCH":"2026-03-21T06:00:02.999808","MEAN_MOTION":15.34463576,"ECCENTRICITY":9.039e-5,"INCLINATION":53.1559,"RA_OF_ASC_NODE":242.6187,"ARG_OF_PERICENTER":79.9124,"MEAN_ANOMALY":236.8512,"EPHEMERIS_TYPE":0,"CLASSIFICATION_TYPE":"U","NORAD_CAT_ID":47993,"ELEMENT_SET_NO":999,"REV_AT_EPOCH":578,"BSTAR":0.04599668,"MEAN_MOTION_DOT":0.0172557,"MEAN_MOTION_DDOT":0},{"OBJECT_NAME":"STARLINK-2266","OBJECT_ID":"2021-024W","EPOCH":"2026-03-21T04:18:17.647488","MEAN_MOTION":15.3019881,"ECCENTRICITY":0.00012068,"INCLINATION":53.1583,"RA_OF_ASC_NODE":253.3797,"ARG_OF_PERICENTER":90.6153,"MEAN_ANOMALY":269.4986,"EPHEMERIS_TYPE":0,"CLASSIFICATION_TYPE":"U","NORAD_CAT_ID":47997,"ELEMENT_SET_NO":999,"REV_AT_EPOCH":27674,"BSTAR":5.3070307e-5,"MEAN_MOTION_DOT":1.213e-5,"MEAN_MOTION_DDOT":0},{"OBJECT_NAME":"STARLINK-2270","OBJECT_ID":"2021-024Z","EPOCH":"2026-03-21T06:00:02.999808","MEAN_MOTION":15.26857184,"ECCENTRICITY":0.00013524,"INCLINATION":53.1288,"RA_OF_ASC_NODE":188.6081,"ARG_OF_PERICENTER":103.0155,"MEAN_ANOMALY":103.422,"EPHEMERIS_TYPE":0,"CLASSIFICATION_TYPE":"U","NORAD_CAT_ID":48000,"ELEMENT_SET_NO":999,"REV_AT_EPOCH":578,"BSTAR":0.030599273,"MEAN_MOTION_DOT":0.0088024,"MEAN_MOTION_DDOT":0},{"OBJECT_NAME":"STARLINK-2153","OBJECT_ID":"2021-024AJ","EPOCH":"2026-03-20T23:18:48.223008","MEAN_MOTION":15.30219859,"ECCENTRICITY":9.096e-5,"INCLINATION":53.1584,"RA_OF_ASC_NODE":256.9964,"ARG_OF_PERICENTER":96.4542,"MEAN_ANOMALY":263.6563,"EPHEMERIS_TYPE":0,"CLASSIFICATION_TYPE":"U","NORAD_CAT_ID":48009,"ELEMENT_SET_NO":999,"REV_AT_EPOCH":27662,"BSTAR":0.00038095654,"MEAN_MOTION_DOT":0.00010947,"MEAN_MOTION_DDOT":0},{"OBJECT_NAME":"STARLINK-2226","OBJECT_ID":"2021-024AK","EPOCH":"2026-03-20T19:53:14.036352","MEAN_MOTION":15.30206068,"ECCENTRICITY":0.00010968,"INCLINATION":53.1593,"RA_OF_ASC_NODE":280.6832,"ARG_OF_PERICENTER":86.9967,"MEAN_ANOMALY":273.116,"EPHEMERIS_TYPE":0,"CLASSIFICATION_TYPE":"U","NORAD_CAT_ID":48010,"ELEMENT_SET_NO":999,"REV_AT_EPOCH":27627,"BSTAR":6.0477118e-5,"MEAN_MOTION_DOT":1.433e-5,"MEAN_MOTION_DDOT":0},{"OBJECT_NAME":"STARLINK-2285","OBJECT_ID":"2021-024AU","EPOCH":"2026-03-21T04:39:33.429024","MEAN_MOTION":15.30199848,"ECCENTRICITY":9.904e-5,"INCLINATION":53.1597,"RA_OF_ASC_NODE":253.425,"ARG_OF_PERICENTER":63.5023,"MEAN_ANOMALY":296.6079,"EPHEMERIS_TYPE":0,"CLASSIFICATION_TYPE":"U","NORAD_CAT_ID":48019,"ELEMENT_SET_NO":999,"REV_AT_EPOCH":27668,"BSTAR":0.0002313948,"MEAN_MOTION_DOT":6.5e-5,"MEAN_MOTION_DDOT":0},{"OBJECT_NAME":"STARLINK-2298","OBJECT_ID":"2021-024AX","EPOCH":"2026-03-21T06:00:02.999808","MEAN_MOTION":15.27350997,"ECCENTRICITY":0.00011944,"INCLINATION":53.1266,"RA_OF_ASC_NODE":278.6454,"ARG_OF_PERICENTER":103.9616,"MEAN_ANOMALY":129.1154,"EPHEMERIS_TYPE":0,"CLASSIFICATION_TYPE":"U","NORAD_CAT_ID":48022,"ELEMENT_SET_NO":999,"REV_AT_EPOCH":578,"BSTAR":0.062071022,"MEAN_MOTION_DOT":0.01852604,"MEAN_MOTION_DDOT":0},{"OBJECT_NAME":"STARLINK-2292","OBJECT_ID":"2021-024AY","EPOCH":"2026-03-21T06:00:02.999808","MEAN_MOTION":15.26201257,"ECCENTRICITY":0.00018549,"INCLINATION":53.1212,"RA_OF_ASC_NODE":278.6096,"ARG_OF_PERICENTER":95.2175,"MEAN_ANOMALY":62.9401,"EPHEMERIS_TYPE":0,"CLASSIFICATION_TYPE":"U","NORAD_CAT_ID":48023,"ELEMENT_SET_NO":999,"REV_AT_EPOCH":578,"BSTAR":0.002391817,"MEAN_MOTION_DOT":0.00062883,"MEAN_MOTION_DDOT":0},{"OBJECT_NAME":"STARLINK-2299","OBJECT_ID":"2021-024BE","EPOCH":"2026-03-21T06:00:02.999808","MEAN_MOTION":15.24472435,"ECCENTRICITY":0.0001061,"INCLINATION":53.118,"RA_OF_ASC_NODE":278.461,"ARG_OF_PERICENTER":107.5094,"MEAN_ANOMALY":254.4475,"EPHEMERIS_TYPE":0,"CLASSIFICATION_TYPE":"U","NORAD_CAT_ID":48029,"ELEMENT_SET_NO":999,"REV_AT_EPOCH":578,"BSTAR":0.002299195,"MEAN_MOTION_DOT":0.00057322,"MEAN_MOTION_DDOT":0},{"OBJECT_NAME":"STARLINK-2404","OBJECT_ID":"2021-027B","EPOCH":"2026-03-20T18:05:38.058144","MEAN_MOTION":15.30203238,"ECCENTRICITY":0.00014093,"INCLINATION":53.1584,"RA_OF_ASC_NODE":103.5595,"ARG_OF_PERICENTER":80.8745,"MEAN_ANOMALY":279.2415,"EPHEMERIS_TYPE":0,"CLASSIFICATION_TYPE":"U","NORAD_CAT_ID":48093,"ELEMENT_SET_NO":999,"REV_AT_EPOCH":27435,"BSTAR":0.00010854708,"MEAN_MOTION_DOT":2.857e-5,"MEAN_MOTION_DDOT":0},{"OBJECT_NAME":"STARLINK-2412","OBJECT_ID":"2021-027C","EPOCH":"2026-03-20T11:55:27.032160","MEAN_MOTION":15.30198772,"ECCENTRICITY":0.00013625,"INCLINATION":53.1607,"RA_OF_ASC_NODE":115.0764,"ARG_OF_PERICENTER":89.8553,"MEAN_ANOMALY":270.2604,"EPHEMERIS_TYPE":0,"CLASSIFICATION_TYPE":"U","NORAD_CAT_ID":48094,"ELEMENT_SET_NO":999,"REV_AT_EPOCH":27417,"BSTAR":3.514824e-6,"MEAN_MOTION_DOT":-2.55e-6,"MEAN_MOTION_DDOT":0},{"OBJECT_NAME":"STARLINK-2414","OBJECT_ID":"2021-027D","EPOCH":"2026-03-21T06:59:14.442432","MEAN_MOTION":15.30216982,"ECCENTRICITY":0.00012546,"INCLINATION":53.1609,"RA_OF_ASC_NODE":111.4227,"ARG_OF_PERICENTER":88.8092,"MEAN_ANOMALY":271.3053,"EPHEMERIS_TYPE":0,"CLASSIFICATION_TYPE":"U","NORAD_CAT_ID":48095,"ELEMENT_SET_NO":999,"REV_AT_EPOCH":27430,"BSTAR":8.3354605e-5,"MEAN_MOTION_DOT":2.112e-5,"MEAN_MOTION_DDOT":0}]
