STARLINK-2378           
1 47916U 21021BJ  26079.81262000  .00001532  00000+0  63817-4 0  9995
2 47916  53.1584 203.6898 0001113  74.4145 285.6979 15.30208057278118
STARLINK-2405           
1 47919U 21021BM  26080.11172783  .00003546  00000+0  13501-3 0  9992
2 47919  53.1559 227.9296 0000925 133.1430 226.9647 15.29390692277792
STARLINK-1647           
1 47978U 21024B   26080.24053934  .00006744  00000+0  23956-3 0  9998
2 47978  53.1584 278.7505 0001122  82.0569 278.0560 15.30208334276397
STARLINK-2303           
1 47981U 21024E   26079.58108116  .00008025  00000+0  28270-3 0  9998
2 47981  53.1594 281.8623 0001342  97.5852 262.5301 15.30209328276292
STARLINK-2273           
1 47993U 21024S   26080.25003472  .01725570  00000+0  45997-1 0  9991
2 47993  53.1559 242.6187 0000903  79.9124 236.8512 15.34463576  5787
STARLINK-2266           
1 47997U 21024W   26080.17937092  .00001213  00000+0  53070-4 0  9994
2 47997  53.1583 253.3797 0001206  90.6153 269.4986 15.30198810276748
STARLINK-2270           
1 48000U 21024Z   26080.25003472  .00880240  00000+0  30599-1 0  9998
2 48000  53.1288 188.6081 0001352 103.0155 103.4220 15.26857184  5788
STARLINK-2153           
1 48009U 21024AJ  26079.97139147  .00010947  00000+0  38096-3 0  9994
2 48009  53.1584 256.9964 0000909  96.4542 263.6563 15.30219859276625
STARLINK-2226           
1 48010U 21024AK  26079.82863468  .00001433  00000+0  60477-4 0  9999
2 48010  53.1593 280.6832 0001096  86.9967 273.1160 15.30206068276276
STARLINK-2285           
1 48019U 21024AU  26080.19413691  .00006500  00000+0  23139-3 0  9992
2 48019  53.1597 253.4250 0000990  63.5023 296.6079 15.30199848276688
STARLINK-2298           
1 48022U 21024AX  26080.25003472  .01852604  00000+0  62071-1 0  9996
2 48022  53.1266 278.6454 0001194 103.9616 129.1154 15.27350997  5789
STARLINK-2292           
1 48023U 21024AY  26080.25003472  .00062883  00000+0  23918-2 0  9996
2 48023  53.1212 278.6096 0001854  95.2175  62.9401 15.26201257  5781
STARLINK-2299           
1 48029U 21024BE  26080.25003472  .00057322  00000+0  22992-2 0  9995
2 48029  53.1180 278.4610 0001061 107.5094 254.4475 15.24472435  5783
STARLINK-2404           
1 48093U 21027B   26079.75391271  .00002857  00000+0  10855-3 0  9998
2 48093  53.1584 103.5595 0001409  80.8745 279.2415 15.30203238274354
STARLINK-2412           
1 48094U 21027C   26079.49684065 -.00000255  00000+0  35148-5 0  9991
2 48094  53.1607 115.0764 0001362  89.8553 270.2604 15.30198772274178
STARLINK-2414           
1 48095U 21027D   26080.29113938  .00002112  00000+0  83355-4 0  9993
2 48095  53.1609 111.4227 0001254  88.8092 271.3053 15.30216982274301
